OBJECT_NAME,OBJECT_ID,EPOCH,MEAN_MOTION,ECCENTRICITY,INCLINATION,RA_OF_ASC_NODE,ARG_OF_PERICENTER,MEAN_ANOMALY,EPHEMERIS_TYPE,CLASSIFICATION_TYPE,NORAD_CAT_ID,ELEMENT_SET_NO,REV_AT_EPOCH,BSTAR,MEAN_MOTION_DOT,MEAN_MOTION_DDOT
MONITOR-3 (RS58S),2023-091Q,2026-06-14T12:18:44.524512,15.27794971,.00131144,97.5090,228.9390,108.9530,251.3132,0,U,57180,999,16388,.38432029E-3,.10387E-3,0
MONITOR-4 (RS57S),2023-091S,2026-06-14T14:57:24.902496,15.27882593,.00131208,97.5083,229.0213,109.0144,251.2517,0,U,57182,999,16390,.34163207E-3,.9248E-4,0
MONITOR-2 (RS39S),2023-091U,2026-06-14T14:40:46.445088,15.18889480,.00126705,97.5076,223.9110,118.8694,241.3813,0,U,57184,999,16356,.21207076E-3,.4363E-4,0
SVYATOBOR 1 (RS60S),2023-091X,2026-06-14T13:38:43.064736,15.26576511,.00109027,97.5096,229.3709,102.2638,257.9822,0,U,57187,999,16391,.3293317E-3,.8557E-4,0
HORS 1,2023-091Y,2026-06-14T14:52:32.349504,15.26682513,.00103693,97.5073,229.1851,101.8942,258.3460,0,U,57188,999,16392,.3436654E-3,.8961E-4,0
VIZARD-METEO (RS38S),2023-091Z,2026-06-14T14:33:56.076192,15.35953804,.00084108,97.5099,235.0400,85.3408,274.8796,0,U,57189,999,16429,.46224786E-3,.16129E-3,0
SITRO-AIS 6 (CHIRKIN),2023-091AC,2026-06-14T14:56:09.303360,15.25892781,.00131101,97.5074,228.6298,114.3392,245.9217,0,U,57192,999,16389,.37301224E-3,.9512E-4,0
SITRO-AIS 8 (ANOKHIN),2023-091AD,2026-06-14T14:31:44.094144,15.32073906,.00118106,97.5063,231.0581,107.8523,252.4008,0,U,57193,999,16405,.44354832E-3,.13694E-3,0
SITRO-AIS 7 (FARTUSHNIY),2023-091AE,2026-06-14T14:59:56.163840,15.25581383,.00129623,97.5071,228.4588,115.2648,244.9934,0,U,57194,999,16388,.36471557E-3,.9211E-4,0
AVION KALUGA 650,2023-091AF,2026-06-14T14:17:17.225664,15.20327926,.00118301,97.5093,225.1820,117.1024,243.1420,0,U,57195,999,16363,.25951999E-3,.5583E-4,0
HORS 2,2023-091AG,2026-06-14T14:47:59.171712,15.31835984,.00094322,97.5096,232.6109,95.4924,264.7393,0,U,57196,999,16413,.4110312E-3,.12579E-3,0
A-SEANSAT-PG1,2023-091AH,2026-06-14T14:27:11.340576,15.36882440,.00083916,97.5088,235.1282,92.6584,267.5621,0,U,57197,999,16431,.49721016E-3,.17885E-3,0
SITRO-AIS 10 (BURDAEV),2023-091AK,2026-06-14T12:25:27.631488,15.38523162,.00076509,97.5089,235.9956,88.3983,271.8139,0,U,57199,999,16435,.46692686E-3,.17704E-3,0
SITRO-AIS 9 (SHCHUKIN),2023-091AM,2026-06-14T14:35:56.440896,15.38037584,.00079051,97.5087,235.8206,87.9389,272.2761,0,U,57201,999,16435,.4931001E-3,.18411E-3,0
UTMN 2 (RS27S),2023-091AP,2026-06-14T13:53:31.028640,15.31995719,.00093975,97.5095,232.7635,91.6041,268.6277,0,U,57203,999,16414,.38896036E-3,.11958E-3,0
SITRO-AIS 12 (SMIRENNIY),2023-091AQ,2026-06-14T14:23:08.475360,15.38328506,.00074667,97.5099,236.2772,83.0593,277.1500,0,U,57204,999,16437,.5003936E-3,.18861E-3,0
SITRO-AIS 11 (SHEFFER),2023-091AU,2026-06-14T14:43:29.130240,15.38753738,.00073173,97.5097,236.5363,83.3466,276.8612,0,U,57208,999,16439,.48582242E-3,.18563E-3,0
H2SAT (HEINRICH HERTZ),2023-093A,2026-06-14T14:49:14.121120,1.00272077,.00008594,0.0574,111.2251,82.7537,291.9510,0,U,57213,999,1089,0,.9E-7,0
KUZGTU 1 (RS47S),2023-091AV,2026-06-14T14:44:09.065184,15.29810490,.00123514,97.5070,230.0676,105.9196,254.3406,0,U,57217,999,16398,.39427352E-3,.11336E-3,0
QIANKUN-1,2023-103B,2026-06-14T07:23:36.626784,16.08988716,.00279774,96.1501,210.3549,142.6210,217.7030,0,U,57422,999,16683,.23361736E-4,.2101E-3,.1857805E-5
FENGYUN 3F,2023-111A,2026-06-14T13:52:53.620032,14.19938698,.00015905,98.6835,235.6356,94.9925,265.1433,0,U,57490,999,14849,.45725993E-4,.54E-6,0
HJ-2F,2023-116A,2026-06-14T14:57:23.277312,15.22288462,.00100753,97.3836,170.8864,59.6652,300.5579,0,U,57519,999,15836,.32818378E-3,.7499E-4,0
XRISM,2023-137A,2026-06-14T06:53:04.538976,15.12442568,.00079745,31.0031,18.3881,295.0173,64.9638,0,U,57800,999,15242,.25810062E-3,.4699E-4,0
METEOR-M2 4,2024-039A,2026-06-14T15:37:36.727392,14.22429280,.0007148,98.7009,124.9810,168.0715,192.0633,0,U,59051,999,11890,.13424324E-4,-.14E-6,0
GRBBETA,2024-128C,2026-06-14T11:58:27.666048,15.06624478,.00409774,61.9892,225.6981,134.1230,226.3246,0,U,60237,999,10586,.22869814E-3,.325E-4,0
TRANSPORTER-11 OBJECT A,2024-149A,2026-06-14T11:26:59.326656,15.32868546,.00025371,97.3738,245.4149,204.1804,155.9320,0,U,60468,999,10164,.27053446E-3,.8511E-4,0
WARATAH SEED-1,2024-149B,2026-06-14T04:18:14.786784,15.35879082,.00012579,97.3697,245.7507,186.4432,173.6796,0,U,60469,999,10165,.39190395E-3,.13612E-3,0
PHISAT 2,2024-149C,2026-06-14T04:07:04.579392,15.31016531,.00006543,97.3762,244.4041,179.6668,180.4573,0,U,60470,999,10153,.3103383E-3,.9225E-4,0
LEMUR-2-TOMATOKECHUP,2024-149D,2026-06-14T04:13:05.397888,15.35976496,.00011473,97.3808,247.2145,181.7655,178.3585,0,U,60471,999,10170,.34860764E-3,.12135E-3,0
